     2.01           GLONASS NAV DATA                        RINEX VERSION / TYPE
CCRINEXG V1.4 UX    CDDIS               16-FEB-23 23:33     PGM / RUN BY / DATE 
IGS BROADCAST EPHEMERIS FILE                                COMMENT             
teqc  2020Oct7      UNAVCO Archive Ops  20230216  1:40:     COMMENT             
  2023     2    15    0.931322574616D-09                    CORR TO SYSTEM TIME 
    18                                                      LEAP SECONDS        
                                                            END OF HEADER       
14 23  2 15 11 45  0.0 0.243438407779D-04 0.000000000000D+00 0.423000000000D+05
    0.108569291992D+05-0.146975517273D+00-0.931322574616D-09 0.000000000000D+00
   -0.764255371094D+04 0.297700214386D+01 0.931322574616D-09-0.700000000000D+01
    0.217871333008D+05 0.111644268036D+01-0.279396772385D-08 0.000000000000D+00
15 23  2 15 11 45  0.0 0.910609960556D-04 0.000000000000D+00 0.423000000000D+05
    0.600232128906D+04-0.190454483032D+00 0.931322574616D-09 0.000000000000D+00
   -0.224555429688D+05 0.143122673035D+01 0.000000000000D+00 0.000000000000D+00
    0.105183676758D+05 0.316765880585D+01-0.372529029846D-08 0.000000000000D+00
16 23  2 15 11 45  0.0 0.113090500236D-04 0.909494701773D-12 0.419400000000D+05
   -0.250987207031D+04-0.137509346008D+00 0.279396772385D-08 0.000000000000D+00
   -0.244274624023D+05-0.957100868225D+00-0.186264514923D-08-0.100000000000D+01
   -0.695586279297D+04 0.340706348419D+01-0.186264514923D-08 0.000000000000D+00
17 23  2 15 11 45  0.0 0.605087727308D-03 0.272848410532D-11 0.414000000000D+05
    0.184388642578D+05 0.208906364441D+01 0.931322574616D-09 0.000000000000D+00
    0.251096630859D+04 0.117765903473D+01-0.279396772385D-08 0.400000000000D+01
   -0.174510996094D+05 0.237220001221D+01 0.000000000000D+00 0.000000000000D+00
18 23  2 15 11 45  0.0 0.669285655022D-04 0.909494701773D-12 0.414000000000D+05
    0.532656982422D+04 0.265875911713D+01 0.279396772385D-08 0.000000000000D+00
   -0.899379687500D+04 0.176870632172D+01-0.279396772385D-08-0.300000000000D+01
   -0.232502929688D+05-0.697460174560D-01 0.000000000000D+00 0.000000000000D+00
19 23  2 15 11 45  0.0-0.221980735660D-03-0.909494701773D-12 0.414000000000D+05
   -0.880918945312D+04 0.191365242004D+01 0.279396772385D-08 0.000000000000D+00
   -0.159021035156D+05 0.154685115814D+01-0.186264514923D-08 0.300000000000D+01
   -0.178921630859D+05-0.231605625153D+01 0.000000000000D+00 0.000000000000D+00
20 23  2 15 11 45  0.0-0.877315178513D-04 0.000000000000D+00 0.423000000000D+05
   -0.210817666016D+05-0.253017425537D+00 0.000000000000D+00 0.000000000000D+00
   -0.143775366211D+05 0.140604019165D+00 0.931322574616D-09 0.200000000000D+01
    0.928482421875D+03-0.360713386536D+01 0.000000000000D+00 0.000000000000D+00
21 23  2 15 11 45  0.0-0.373483635485D-03-0.272848410532D-11 0.423000000000D+05
   -0.173950795898D+05-0.220800113678D+01-0.186264514923D-08 0.000000000000D+00
   -0.142402587891D+04-0.128371143341D+01 0.279396772385D-08 0.400000000000D+01
    0.185970625000D+05-0.216548919678D+01 0.000000000000D+00 0.000000000000D+00
22 23  2 15 11 45  0.0 0.710794702172D-04 0.181898940355D-11 0.416400000000D+05
   -0.518181250000D+04-0.255803012848D+01-0.186264514923D-08 0.000000000000D+00
    0.963790332031D+04-0.184082698822D+01 0.279396772385D-08-0.300000000000D+01
    0.230694887695D+05 0.196406364441D+00 0.000000000000D+00 0.000000000000D+00
23 23  2 15 11 45  0.0-0.727130100131D-04-0.909494701773D-12 0.414000000000D+05
    0.131175791016D+05-0.152540206909D+01-0.186264514923D-08 0.000000000000D+00
    0.165133969727D+05-0.125832366943D+01 0.931322574616D-09 0.300000000000D+01
    0.143375219727D+05 0.284474468231D+01-0.000000000000D+00 0.000000000000D+00
24 23  2 15 11 45  0.0 0.146984122693D-03 0.272848410532D-11 0.414000000000D+05
    0.216456098633D+05 0.277007102966D+00-0.000000000000D+00 0.000000000000D+00
    0.134155830078D+05-0.368118286133D-01-0.931322574616D-09 0.200000000000D+01
   -0.152049658203D+04 0.357143783569D+01-0.000000000000D+00 0.000000000000D+00
25 23  2 15 11 45  0.0 0.551370903850D-04 0.909494701773D-12 0.414000000000D+05
   -0.185620068359D+05-0.197632408142D+01-0.931322574616D-09 0.600000000000D+01
   -0.338332958984D+04-0.127670097351D+01 0.279396772385D-08-0.500000000000D+01
    0.171654726562D+05-0.239093875885D+01-0.000000000000D+00 0.000000000000D+00
 1 23  2 15 12 15  0.0 0.230791047216D-04 0.000000000000D+00 0.432000000000D+05
   -0.411635791016D+04-0.218728923798D+01-0.000000000000D+00 0.000000000000D+00
    0.150098417969D+05 0.169656562805D+01-0.000000000000D+00 0.100000000000D+01
   -0.202018486328D+05 0.170664691925D+01 0.279396772385D-08 0.000000000000D+00
 2 23  2 15 12 15  0.0-0.232718884945D-04-0.000000000000D+00 0.432000000000D+05
    0.127128032227D+05-0.250299072266D+01 0.931322574616D-09 0.000000000000D+00
    0.366133398438D+04 0.164188003540D+01-0.279396772385D-08-0.400000000000D+01
   -0.217485024414D+05-0.119026565552D+01 0.931322574616D-09 0.000000000000D+00
 3 23  2 15 12 15  0.0 0.725621357560D-04 0.000000000000D+00 0.446400000000D+05
    0.215006533203D+05-0.123152065277D+01 0.931322574616D-09 0.000000000000D+00
   -0.913624072266D+04 0.675014495850D+00-0.279396772385D-08 0.500000000000D+01
   -0.101228833008D+05-0.321493911743D+01-0.931322574616D-09 0.000000000000D+00
 4 23  2 15 12 15  0.0 0.175905413926D-03 0.181898940355D-11 0.441000000000D+05
    0.182803720703D+05 0.668207168579D+00 0.000000000000D+00 0.000000000000D+00
   -0.164159916992D+05-0.679636001587D+00-0.186264514923D-08 0.600000000000D+01
    0.686097509766D+04-0.342336750030D+01-0.372529029846D-08 0.000000000000D+00
 5 23  2 15 12 15  0.0 0.107806175947D-03 0.909494701773D-12 0.441000000000D+05
    0.510972753906D+04 0.222247505188D+01 0.000000000000D+00 0.000000000000D+00
   -0.148230014648D+05-0.162994861603D+01 0.931322574616D-09 0.100000000000D+01
    0.201258823242D+05-0.176829051971D+01-0.279396772385D-08 0.000000000000D+00
 6 23  2 15 12 15  0.0-0.955769792199D-04-0.181898940355D-11 0.441000000000D+05
   -0.138228662109D+05 0.238184547424D+01-0.931322574616D-09 0.000000000000D+00
   -0.247168554688D+04-0.168356800079D+01 0.279396772385D-08-0.400000000000D+01
    0.212942148438D+05 0.134814739227D+01-0.931322574616D-09 0.000000000000D+00
 7 23  2 15 12 15  0.0 0.499924644828D-04 0.909494701773D-12 0.447000000000D+05
   -0.216897387695D+05 0.115419578552D+01-0.931322574616D-09 0.000000000000D+00
    0.959430322266D+04-0.604082107544D+00 0.279396772385D-08 0.500000000000D+01
    0.950079003906D+04 0.325466823578D+01 0.931322574616D-09 0.000000000000D+00
 8 23  2 15 12 15  0.0-0.694533810020D-04-0.000000000000D+00 0.432000000000D+05
   -0.181599448242D+05-0.685020446777D+00-0.931322574616D-09 0.000000000000D+00
    0.165445502930D+05 0.677682876587D+00 0.186264514923D-08 0.600000000000D+01
   -0.686791113281D+04 0.341047191620D+01 0.279396772385D-08 0.000000000000D+00
 9 23  2 15 12 15  0.0 0.104246661067D-03 0.272848410532D-11 0.449700000000D+05
   -0.102320869141D+05-0.328709602356D+00 0.186264514923D-08 0.000000000000D+00
   -0.161301464844D+05-0.229417133331D+01-0.186264514923D-08-0.200000000000D+01
   -0.169333471680D+05 0.237518310547D+01 0.000000000000D+00 0.000000000000D+00
10 23  2 15 12 15  0.0-0.905646011233D-04-0.000000000000D+00 0.432000000000D+05
   -0.110779951172D+05-0.319566726685D+00 0.931322574616D-09 0.000000000000D+00
    0.236519042969D+03-0.312669277191D+01-0.931322574616D-09-0.700000000000D+01
   -0.229886601562D+05 0.129220962524D+00 0.186264514923D-08 0.000000000000D+00
11 23  2 15 12 15  0.0-0.503938645124D-05-0.454747350886D-11 0.432000000000D+05
   -0.606484228516D+04-0.113436698914D+00-0.000000000000D+00 0.000000000000D+00
    0.184004150391D+05-0.227198505402D+01 0.000000000000D+00 0.000000000000D+00
   -0.165804296875D+05-0.248007011414D+01 0.279396772385D-08 0.000000000000D+00
12 23  2 15 12 15  0.0 0.250292941928D-04 0.000000000000D+00 0.432000000000D+05
    0.281074658203D+04 0.164359092712D+00-0.931322574616D-09 0.000000000000D+00
    0.253441845703D+05 0.123520851135D+00 0.931322574616D-09-0.100000000000D+01
    0.102638818359D+04-0.355944633484D+01 0.186264514923D-08 0.000000000000D+00
13 23  2 15 12 15  0.0-0.320523977280D-04-0.000000000000D+00 0.432000000000D+05
    0.943979101562D+04 0.327338218689D+00-0.186264514923D-08 0.000000000000D+00
    0.176525991211D+05 0.214381408691D+01 0.186264514923D-08-0.200000000000D+01
    0.157917812500D+05-0.258785438538D+01 0.000000000000D+00 0.000000000000D+00
14 23  2 15 12 15  0.0 0.243438407779D-04 0.000000000000D+00 0.441000000000D+05
    0.109853945312D+05 0.295383453369D+00-0.931322574616D-09 0.000000000000D+00
   -0.210720263672D+04 0.312289524078D+01 0.931322574616D-09-0.700000000000D+01
    0.229291972656D+05 0.144254684448D+00-0.186264514923D-08 0.000000000000D+00
15 23  2 15 12 15  0.0 0.910609960556D-04 0.000000000000D+00 0.441000000000D+05
    0.587886669922D+04 0.856828689575D-01 0.000000000000D+00 0.000000000000D+00
   -0.192021098633D+05 0.215324974060D+01 0.000000000000D+00 0.000000000000D+00
    0.157401474609D+05 0.259670543671D+01-0.372529029846D-08 0.000000000000D+00
16 23  2 15 12 15  0.0 0.113109126687D-04 0.909494701773D-12 0.441000000000D+05
   -0.283560400391D+04-0.183612823486D+00 0.186264514923D-08 0.000000000000D+00
   -0.253575219727D+05-0.690765380859D-01-0.931322574616D-09-0.100000000000D+01
   -0.633771484375D+03 0.357193756103D+01-0.279396772385D-08 0.000000000000D+00
17 23  2 15 12 15  0.0 0.605094246566D-03 0.272848410532D-11 0.432000000000D+05
    0.218339394531D+05 0.163752460480D+01 0.000000000000D+00 0.000000000000D+00
    0.407277880859D+04 0.568748474121D+00-0.186264514923D-08 0.400000000000D+01
   -0.125620463867D+05 0.302477550507D+01 0.000000000000D+00 0.000000000000D+00
